{"type": "FeatureCollection", "features": [{"type": "Feature", "properties": {"codigo": "01", "pasta": "01_JARDIM_PRIMAVERA", "nome": "Jardim Primavera", "lotes": 463, "edificacoes": 173, "quadras": 34, "area_cadastrada_m2": 317122.9}, "geometry": {"type": "Polygon", "coordinates": [[[-44.180938, -20.058969], [-44.182827, -20.058783], [-44.184247, -20.056175], [-44.184295, -20.055197], [-44.183867, -20.052569], [-44.180553, -20.052106], [-44.179494, -20.052321], [-44.17904, -20.05248], [-44.178819, -20.052573], [-44.178321, -20.052918], [-44.178205, -20.053054], [-44.178147, -20.053145], [-44.178078, -20.053284], [-44.176417, -20.056892], [-44.176714, -20.057104], [-44.180938, -20.058969]]]}}, {"type": "Feature", "properties": {"codigo": "02", "pasta": "02_CENTRO", "nome": "Centro", "lotes": 22, "edificacoes": 0, "quadras": 0, "area_cadastrada_m2": 18694.72}, "geometry": {"type": "Polygon", "coordinates": [[[-44.1887, -20.055941], [-44.188978, -20.055764], [-44.188705, -20.051643], [-44.188621, -20.051637], [-44.188491, -20.051639], [-44.188266, -20.051691], [-44.188049, -20.051783], [-44.188038, -20.053829], [-44.188039, -20.054141], [-44.188064, -20.055284], [-44.188074, -20.055316], [-44.188127, -20.055436], [-44.188205, -20.05555], [-44.188332, -20.055678], [-44.1887, -20.055941]]]}}, {"type": "Feature", "properties": {"codigo": "03", "pasta": "03_SAO_TARCISIO", "nome": "Sao Tarcisio", "lotes": 409, "edificacoes": 43, "quadras": 18, "area_cadastrada_m2": 161173.1}, "geometry": {"type": "Polygon", "coordinates": [[[-44.182759, -20.052387], [-44.182983, -20.052378], [-44.185587, -20.052165], [-44.1857, -20.052147], [-44.185813, -20.052129], [-44.186684, -20.051989], [-44.18687, -20.051951], [-44.187006, -20.051918], [-44.187385, -20.051809], [-44.187569, -20.051747], [-44.187839, -20.051655], [-44.187911, -20.05163], [-44.188741, -20.051335], [-44.188945, -20.05069], [-44.188951, -20.050662], [-44.188963, -20.050606], [-44.188968, -20.050578], [-44.188977, -20.050522], [-44.188983, -20.050472], [-44.188989, -20.050407], [-44.188991, -20.050385], [-44.188993, -20.050341], [-44.188994, -20.050304], [-44.188994, -20.050268], [-44.188993, -20.050231], [-44.188992, -20.050198], [-44.188991, -20.050182], [-44.188989, -20.050151], [-44.188988, -20.050136], [-44.188982, -20.050074], [-44.18898, -20.050058], [-44.188978, -20.050043], [-44.188971, -20.049996], [-44.188962, -20.04995], [-44.188953, -20.049905], [-44.18895, -20.04989], [-44.188946, -20.049874], [-44.188938, -20.049842], [-44.18893, -20.049811], [-44.188921, -20.04978], [-44.188912, -20.04975], [-44.188907, -20.049735], [-44.188902, -20.04972], [-44.188887, -20.049676], [-44.188846, -20.049575], [-44.188833, -20.049545], [-44.188819, -20.049515], [-44.188812, -20.049501], [-44.18879, -20.049458], [-44.188775, -20.04943], [-44.188752, -20.049389], [-44.188727, -20.049348], [-44.188709, -20.04932], [-44.1887, -20.049306], [-44.188682, -20.049279], [-44.188672, -20.049264], [-44.18864, -20.049219], [-44.188606, -20.049175], [-44.188593, -20.049159], [-44.188566, -20.049126], [-44.188552, -20.04911], [-44.188524, -20.049078], [-44.18851, -20.049063], [-44.188436, -20.048987], [-44.188397, -20.048951], [-44.188377, -20.048933], [-44.18831, -20.048876], [-44.188021, -20.048699], [-44.188016, -20.048696], [-44.18801, -20.048693], [-44.185999, -20.04773], [-44.184575, -20.048289], [-44.181338, -20.050226], [-44.180603, -20.050869], [-44.180571, -20.050926], [-44.180468, -20.051199], [-44.180317, -20.052014], [-44.182759, -20.052387]]]}}, {"type": "Feature", "properties": {"codigo": "04", "pasta": "04_VILA_TANIA", "nome": "Vila Tania", "lotes": 86, "edificacoes": 13, "quadras": 9, "area_cadastrada_m2": 49230.48}, "geometry": {"type": "Polygon", "coordinates": [[[-44.187901, -20.057001], [-44.188551, -20.056122], [-44.188564, -20.056098], [-44.188555, -20.05608], [-44.187925, -20.055144], [-44.187638, -20.055147], [-44.185374, -20.055178], [-44.184295, -20.055197], [-44.184259, -20.055848], [-44.184247, -20.056065], [-44.184241, -20.056174], [-44.187901, -20.057001]]]}}, {"type": "Feature", "properties": {"codigo": "05", "pasta": "05_VILA_MARIO_CAMPOS", "nome": "Vila Mario Campos", "lotes": 297, "edificacoes": 19, "quadras": 18, "area_cadastrada_m2": 107198.15}, "geometry": {"type": "Polygon", "coordinates": [[[-44.184018, -20.05512], [-44.185116, -20.055107], [-44.185259, -20.055105], [-44.18793, -20.055054], [-44.187934, -20.054098], [-44.187915, -20.05183], [-44.184283, -20.052237], [-44.183996, -20.05227], [-44.183997, -20.05329], [-44.184005, -20.054253], [-44.184008, -20.05447], [-44.184018, -20.05512]]]}}, {"type": "Feature", "properties": {"codigo": "06", "pasta": "06_VILA_PRIMAVERA", "nome": "Vila Primavera", "lotes": 32, "edificacoes": 0, "quadras": 0, "area_cadastrada_m2": 7398.17}, "geometry": {"type": "Polygon", "coordinates": [[[-44.182684, -20.05271], [-44.182786, -20.052698], [-44.183086, -20.052646], [-44.183256, -20.052615], [-44.183592, -20.052526], [-44.183757, -20.052482], [-44.183895, -20.052445], [-44.183856, -20.052314], [-44.180994, -20.052085], [-44.180705, -20.05209], [-44.180608, -20.052094], [-44.180553, -20.052106], [-44.180556, -20.052244], [-44.182192, -20.05266], [-44.182248, -20.052669], [-44.182539, -20.052698], [-44.182684, -20.05271]]]}}, {"type": "Feature", "properties": {"codigo": "07", "pasta": "07_VILA_ENY", "nome": "Vila Eny", "lotes": 65, "edificacoes": 7, "quadras": 5, "area_cadastrada_m2": 23076.46}, "geometry": {"type": "Polygon", "coordinates": [[[-44.194607, -20.059897], [-44.194927, -20.05971], [-44.19501, -20.059597], [-44.19513, -20.059433], [-44.195073, -20.059351], [-44.19497, -20.059221], [-44.19485, -20.059105], [-44.194744, -20.059028], [-44.194484, -20.058875], [-44.194393, -20.058833], [-44.193271, -20.05834], [-44.192758, -20.058115], [-44.19255, -20.058024], [-44.192449, -20.058419], [-44.192396, -20.05863], [-44.192369, -20.058745], [-44.192339, -20.058886], [-44.192529, -20.058971], [-44.194607, -20.059897]]]}}, {"type": "Feature", "properties": {"codigo": "08", "pasta": "08_VILA_LOURDES", "nome": "Vila Lourdes", "lotes": 127, "edificacoes": 18, "quadras": 10, "area_cadastrada_m2": 74500.83}, "geometry": {"type": "Polygon", "coordinates": [[[-44.195574, -20.060106], [-44.195714, -20.06007], [-44.195458, -20.059596], [-44.195215, -20.059158], [-44.194851, -20.058611], [-44.194839, -20.058593], [-44.194785, -20.058516], [-44.194736, -20.058457], [-44.194396, -20.058156], [-44.194289, -20.058065], [-44.19418, -20.057978], [-44.193956, -20.057808], [-44.193809, -20.057721], [-44.19368, -20.057662], [-44.189009, -20.055887], [-44.188779, -20.056024], [-44.188611, -20.056147], [-44.188603, -20.056154], [-44.188594, -20.056164], [-44.18839, -20.056438], [-44.187951, -20.05703], [-44.188993, -20.057486], [-44.18976, -20.057814], [-44.190991, -20.058327], [-44.191868, -20.05869], [-44.195574, -20.060106]]]}}, {"type": "Feature", "properties": {"codigo": "09", "pasta": "09_VILA_ONDINA", "nome": "Vila Ondina", "lotes": 385, "edificacoes": 84, "quadras": 27, "area_cadastrada_m2": 138323.06}, "geometry": {"type": "Polygon", "coordinates": [[[-44.190373, -20.064261], [-44.191954, -20.062655], [-44.194487, -20.059966], [-44.194563, -20.059881], [-44.194007, -20.059622], [-44.193139, -20.059242], [-44.192332, -20.05889], [-44.190897, -20.058278], [-44.189092, -20.057523], [-44.18873, -20.057384], [-44.188406, -20.058078], [-44.188268, -20.058376], [-44.187856, -20.059271], [-44.187757, -20.059487], [-44.188189, -20.062857], [-44.188965, -20.064042], [-44.190373, -20.064261]]]}}, {"type": "Feature", "properties": {"codigo": "10", "pasta": "10_RETA_DO_JACARE", "nome": "Reta Do Jacare", "lotes": 249, "edificacoes": 16, "quadras": 0, "area_cadastrada_m2": 1332411.42}, "geometry": {"type": "Polygon", "coordinates": [[[-44.202615, -20.075579], [-44.204575, -20.074693], [-44.204954, -20.074468], [-44.209829, -20.067596], [-44.209947, -20.067414], [-44.210004, -20.067272], [-44.21005, -20.067121], [-44.210084, -20.066968], [-44.210098, -20.066869], [-44.210108, -20.066731], [-44.210108, -20.066566], [-44.210084, -20.066359], [-44.210032, -20.066152], [-44.209883, -20.065776], [-44.209789, -20.065581], [-44.209727, -20.065466], [-44.209643, -20.065331], [-44.209379, -20.064962], [-44.207566, -20.062534], [-44.194861, -20.054312], [-44.193942, -20.054883], [-44.192208, -20.060678], [-44.192144, -20.061104], [-44.19207, -20.06164], [-44.191954, -20.062655], [-44.202615, -20.075579]]]}}, {"type": "Feature", "properties": {"codigo": "11", "pasta": "11_CAMPO_VERDE", "nome": "Campo Verde", "lotes": 520, "edificacoes": 27, "quadras": 31, "area_cadastrada_m2": 180305.83}, "geometry": {"type": "Polygon", "coordinates": [[[-44.188899, -20.055243], [-44.190268, -20.055118], [-44.193984, -20.054775], [-44.194071, -20.054748], [-44.19556, -20.053962], [-44.195749, -20.053816], [-44.195886, -20.053535], [-44.195754, -20.0533], [-44.195251, -20.052485], [-44.195131, -20.052308], [-44.193494, -20.050198], [-44.189607, -20.046581], [-44.189185, -20.046547], [-44.188224, -20.046942], [-44.186173, -20.047912], [-44.188718, -20.054845], [-44.188899, -20.055243]]]}}, {"type": "Feature", "properties": {"codigo": "12", "pasta": "12_CHACARAS_MARIA_ANTONIETA", "nome": "Chacaras Maria Antonieta", "lotes": 270, "edificacoes": 40, "quadras": 13, "area_cadastrada_m2": 267997.94}, "geometry": {"type": "Polygon", "coordinates": [[[-44.15863644397323, -20.07044584309823], [-44.15864419698749, -20.07044678925395], [-44.158652005315744, -20.070446974862982], [-44.158659794529434, -20.070446398156108], [-44.15866749038223, -20.070445064630466], [-44.15867501951767, -20.070442986997147], [-44.15868231016849, -20.070440185060036], [-44.158689292840585, -20.070436685527042], [-44.15869590097553, -20.070432521755517], [-44.15870207158495, -20.070427733434293], [-44.15870774585095, -20.07042236620538], [-44.15871286968674, -20.07041647122891], [-44.159096869686735, -20.06992847122891], [-44.159098490581336, -20.06992633883098], [-44.159236490581335, -20.06973833883098], [-44.1592416064447, -20.069730432763738], [-44.15924575784598, -20.069721980318846], [-44.16077675784598, -20.066076980318847], [-44.1607796868768, -20.06606878426927], [-44.161796686876805, -20.062645784269268], [-44.16179851077122, -20.062638364205256], [-44.161799618451845, -20.062630803981424], [-44.16179999981389, -20.062623172565843], [-44.16179965137836, -20.062615539576033], [-44.161798576323875, -20.062607974643868], [-44.1617967844576, -20.06260054678038], [-44.161794292125826, -20.062593323746178], [-44.16179112206482, -20.062586371433326], [-44.161787303193435, -20.062579753264234], [-44.161782870349285, -20.06257352961309], [-44.16177786397096, -20.062567757255092], [-44.161772329729104, -20.062562488848524], [-44.16176631810977, -20.062557772454376], [-44.161759883953906, -20.06255365109791], [-44.1584318839539, -20.06063965109791], [-44.15842924523221, -20.06063819892178], [-44.158026245232215, -20.060426198921782], [-44.15801896896393, -20.060422825467978], [-44.15801139148756, -20.06042019751772], [-44.1580035889618, -20.060418341483658], [-44.15799563980723, -20.06041727602017], [-44.15798762391818, -20.060417011835884], [-44.15797962185966, -20.060417551586024], [-44.157971714057716, -20.060418889845735], [-44.157963979991024, -20.060421013164625], [-44.157956497392114, -20.06042390020191], [-44.15794934146611, -20.06042752194095], [-44.15794258413483, -20.060431841980847], [-44.157936293313966, -20.060436816902314], [-44.15793053223047, -20.060442396704072], [-44.157925358787075, -20.060448525305393], [-44.15792082498034, -20.06045514110974], [-44.154699824980334, -20.065701141109738], [-44.15469895467123, -20.065702592790554], [-44.15459595467124, -20.065878592790554], [-44.15459218385009, -20.065885866809502], [-44.15458917680715, -20.065893488366857], [-44.15458696508367, -20.065901377519094], [-44.15458557187872, -20.065909451515857], [-44.1545850118058, -20.06591762566793], [-44.1545852907396, -20.065925814235552], [-44.15458640575434, -20.06593393132776], [-44.15458834515448, -20.0659418918033], [-44.15459108859741, -20.0659496121637], [-44.15459460730678, -20.065957011429077], [-44.154598864374385, -20.065964011987564], [-44.15749686437439, -20.070222011987564], [-44.157501674033526, -20.070228372422914], [-44.15750709300408, -20.07023422244146], [-44.157513067445215, -20.07023950391966], [-44.157519537997175, -20.07024416438275], [-44.157526440371015, -20.070248157526155], [-44.15753370598738, -20.07025144367552], [-44.15754126265789, -20.07025399018092], [-44.15754903530233, -20.070255771741248], [-44.15813003530233, -20.070358771741247], [-44.15813044397323, -20.07035884309823], [-44.15863644397323, -20.07044584309823]]]}}, {"type": "Feature", "properties": {"codigo": "13", "pasta": "13_ANEXO_MARIA_ANTONIETA", "nome": "Anexo Maria Antonieta", "lotes": 28, "edificacoes": 16, "quadras": 4, "area_cadastrada_m2": 34121.41}, "geometry": {"type": "Polygon", "coordinates": [[[-44.157661, -20.068471], [-44.157702, -20.067417], [-44.157496, -20.067302], [-44.154691, -20.065933], [-44.154456, -20.066315], [-44.154211, -20.066714], [-44.157661, -20.068471]]]}}, {"type": "Feature", "properties": {"codigo": "14", "pasta": "14_RESIDENCIAL_MARIA_ANTONIETA", "nome": "Residencial Maria Antonieta", "lotes": 137, "edificacoes": 47, "quadras": 8, "area_cadastrada_m2": 45700.64}, "geometry": {"type": "Polygon", "coordinates": [[[-44.161357, -20.062304], [-44.162526, -20.06143], [-44.162521, -20.060929], [-44.162177, -20.060711], [-44.161075, -20.060087], [-44.16031, -20.059676], [-44.160186, -20.059627], [-44.160068, -20.059589], [-44.15916, -20.061099], [-44.160783, -20.061995], [-44.16095, -20.062085], [-44.161199, -20.062219], [-44.161357, -20.062304]]]}}, {"type": "Feature", "properties": {"codigo": "15", "pasta": "15_SERRA_DOS_BANDEIRANTES", "nome": "Serra Dos Bandeirantes", "lotes": 503, "edificacoes": 366, "quadras": 23, "area_cadastrada_m2": 517972.78}, "geometry": {"type": "Polygon", "coordinates": [[[-44.148968, -20.087118], [-44.149404, -20.087101], [-44.150742, -20.087047], [-44.151927, -20.086999], [-44.152118, -20.086991], [-44.152309, -20.086983], [-44.153509, -20.086657], [-44.153541, -20.086642], [-44.153573, -20.086627], [-44.153604, -20.086611], [-44.153635, -20.086594], [-44.153665, -20.086576], [-44.153694, -20.086557], [-44.153723, -20.086538], [-44.153762, -20.086507], [-44.153799, -20.086476], [-44.153835, -20.086443], [-44.153871, -20.086409], [-44.153905, -20.086375], [-44.153938, -20.086339], [-44.15397, -20.086302], [-44.153995, -20.086262], [-44.15402, -20.08622], [-44.154044, -20.086179], [-44.154066, -20.086137], [-44.154108, -20.086051], [-44.154127, -20.086007], [-44.154143, -20.08596], [-44.156202, -20.079146], [-44.156247, -20.078975], [-44.156798, -20.076168], [-44.156806, -20.076123], [-44.156811, -20.076077], [-44.156806, -20.07604], [-44.156799, -20.076003], [-44.156789, -20.075966], [-44.156777, -20.075931], [-44.156763, -20.075896], [-44.156746, -20.075862], [-44.156727, -20.075828], [-44.156706, -20.075797], [-44.156683, -20.075766], [-44.156658, -20.075737], [-44.156631, -20.07571], [-44.156605, -20.075686], [-44.156578, -20.075665], [-44.15655, -20.075645], [-44.15652, -20.075627], [-44.156489, -20.075611], [-44.156457, -20.075597], [-44.156424, -20.075585], [-44.15639, -20.075575], [-44.156355, -20.075567], [-44.15632, -20.075561], [-44.150487, -20.074921], [-44.14926, -20.076789], [-44.148141, -20.08477], [-44.148366, -20.086129], [-44.148372, -20.086158], [-44.148379, -20.086186], [-44.148388, -20.086213], [-44.148407, -20.086261], [-44.148416, -20.086281], [-44.148427, -20.086301], [-44.148439, -20.08632], [-44.148968, -20.087118]]]}}, {"type": "Feature", "properties": {"codigo": "16", "pasta": "16_SAO_RAFAEL", "nome": "Sao Rafael", "lotes": 27, "edificacoes": 0, "quadras": 2, "area_cadastrada_m2": 12498.66}, "geometry": {"type": "Polygon", "coordinates": [[[-44.162503, -20.060905], [-44.162553, -20.060582], [-44.162535, -20.060192], [-44.162456, -20.059906], [-44.162374, -20.059768], [-44.162302, -20.059678], [-44.16222, -20.059601], [-44.162136, -20.059526], [-44.162049, -20.059455], [-44.161777, -20.059256], [-44.161619, -20.05946], [-44.16145, -20.059679], [-44.161181, -20.060051], [-44.16217, -20.06069], [-44.162503, -20.060905]]]}}, {"type": "Feature", "properties": {"codigo": "17", "pasta": "17_BOM_JARDIM", "nome": "Bom Jardim", "lotes": 358, "edificacoes": 47, "quadras": 0, "area_cadastrada_m2": 1988962.71}, "geometry": {"type": "Polygon", "coordinates": [[[-44.161434, -20.080475], [-44.161532, -20.080344], [-44.161631, -20.080211], [-44.161776, -20.080007], [-44.16189, -20.079833], [-44.161956, -20.07971], [-44.162006, -20.079573], [-44.162034, -20.079492], [-44.169132, -20.057643], [-44.168252, -20.056669], [-44.167413, -20.056502], [-44.1576, -20.054675], [-44.149963, -20.053543], [-44.149095, -20.053921], [-44.14982, -20.063477], [-44.152578, -20.07033], [-44.158433, -20.078645], [-44.158516, -20.078707], [-44.159593, -20.079367], [-44.161434, -20.080475]]]}}, {"type": "Feature", "properties": {"codigo": "18", "pasta": "18_BELA VISTA", "nome": "Bela Vista", "lotes": 535, "edificacoes": 203, "quadras": 23, "area_cadastrada_m2": 172941.0}, "geometry": {"type": "Polygon", "coordinates": [[[-44.15716, -20.075493], [-44.157224, -20.075275], [-44.157308, -20.074508], [-44.15735, -20.073845], [-44.157551, -20.070282], [-44.157577, -20.069806], [-44.157587, -20.069578], [-44.157413, -20.069547], [-44.157131, -20.069497], [-44.155815, -20.069266], [-44.155678, -20.069242], [-44.153443, -20.068946], [-44.153209, -20.070065], [-44.153191, -20.070197], [-44.153026, -20.073818], [-44.154687, -20.075146], [-44.15716, -20.075493]]]}}, {"type": "Feature", "properties": {"codigo": "19", "pasta": "19_CHACARAS_BOM_JARDIM", "nome": "Chacaras Bom Jardim", "lotes": 45, "edificacoes": 9, "quadras": 4, "area_cadastrada_m2": 274523.49}, "geometry": {"type": "Polygon", "coordinates": [[[-44.1568, -20.089743], [-44.160197, -20.087676], [-44.167086, -20.082815], [-44.158729, -20.083942], [-44.158096, -20.084251], [-44.15576, -20.085493], [-44.154894, -20.085956], [-44.154431, -20.08621], [-44.155786, -20.088384], [-44.1568, -20.089743]]]}}, {"type": "Feature", "properties": {"codigo": "20", "pasta": "20_CHACARAS_JOAQUINA_MARIA", "nome": "Chacaras Joaquina Maria", "lotes": 9, "edificacoes": 0, "quadras": 2, "area_cadastrada_m2": 22717.98}, "geometry": {"type": "Polygon", "coordinates": [[[-44.15764, -20.062455], [-44.157923, -20.062088], [-44.158044, -20.061893], [-44.158164, -20.061698], [-44.156954, -20.060852], [-44.155017, -20.060261], [-44.154841, -20.060318], [-44.154948, -20.060751], [-44.156895, -20.062062], [-44.15764, -20.062455]]]}}, {"type": "Feature", "properties": {"codigo": "21", "pasta": "21_DAS_PALMEIRAS", "nome": "Das Palmeiras", "lotes": 78, "edificacoes": 4, "quadras": 3, "area_cadastrada_m2": 162803.24}, "geometry": {"type": "Polygon", "coordinates": [[[-44.159487, -20.073049], [-44.161259, -20.070516], [-44.161906, -20.068278], [-44.162125, -20.064659], [-44.162089, -20.064606], [-44.161763, -20.064444], [-44.161633, -20.064384], [-44.161288, -20.064228], [-44.16109, -20.064146], [-44.161053, -20.064135], [-44.160983, -20.064338], [-44.160963, -20.064398], [-44.158315, -20.072757], [-44.159487, -20.073049]]]}}, {"type": "Feature", "properties": {"codigo": "22", "pasta": "22_TANGARA", "nome": "Tangara", "lotes": 559, "edificacoes": 86, "quadras": 21, "area_cadastrada_m2": 224029.43}, "geometry": {"type": "Polygon", "coordinates": [[[-44.162937, -20.077425], [-44.164594, -20.075297], [-44.164594, -20.074598], [-44.164158, -20.070696], [-44.163766, -20.07048], [-44.163672, -20.070473], [-44.161933, -20.070563], [-44.161011, -20.070635], [-44.160117, -20.071485], [-44.16009, -20.071515], [-44.160065, -20.071546], [-44.160043, -20.071579], [-44.160023, -20.071613], [-44.159581, -20.072574], [-44.159575, -20.072598], [-44.159563, -20.072646], [-44.159552, -20.072695], [-44.159542, -20.072743], [-44.15954, -20.072762], [-44.159539, -20.072781], [-44.159538, -20.072801], [-44.159538, -20.07282], [-44.159539, -20.072839], [-44.159541, -20.072858], [-44.159544, -20.072877], [-44.159586, -20.073066], [-44.159771, -20.073776], [-44.159806, -20.073867], [-44.159815, -20.073886], [-44.159825, -20.073904], [-44.160893, -20.075775], [-44.161128, -20.076175], [-44.161486, -20.076447], [-44.162258, -20.07698], [-44.162937, -20.077425]]]}}, {"type": "Feature", "properties": {"codigo": "23", "pasta": "23_CHACARAS_RECANTO_DO_BOM_JARDIM", "nome": "Chacaras Recanto Do Bom Jardim", "lotes": 56, "edificacoes": 1, "quadras": 4, "area_cadastrada_m2": 78706.61}, "geometry": {"type": "Polygon", "coordinates": [[[-44.164072, -20.072419], [-44.164202, -20.07227], [-44.166358, -20.069398], [-44.166626, -20.068698], [-44.166628, -20.06861], [-44.165153, -20.067134], [-44.164706, -20.066901], [-44.163027, -20.067517], [-44.16296, -20.067772], [-44.162823, -20.068298], [-44.162732, -20.068649], [-44.162683, -20.068838], [-44.164072, -20.072419]]]}}, {"type": "Feature", "properties": {"codigo": "24", "pasta": "24_ESTANCIAS_SERRA_VERDE", "nome": "Estancias Serra Verde", "lotes": 26, "edificacoes": 0, "quadras": 6, "area_cadastrada_m2": 21178.9}, "geometry": {"type": "Polygon", "coordinates": [[[-44.162179, -20.079446], [-44.162271, -20.079426], [-44.163503, -20.077822], [-44.162604, -20.077194], [-44.161486, -20.076447], [-44.162179, -20.079446]]]}}, {"type": "Feature", "properties": {"codigo": "25", "pasta": "25_AREAS_DO_PARAOPEBA", "nome": "Areas Do Paraopeba", "lotes": 32, "edificacoes": 0, "quadras": 0, "area_cadastrada_m2": 104496.71}, "geometry": {"type": "Polygon", "coordinates": [[[-44.209164, -20.070116], [-44.213019, -20.067782], [-44.213291, -20.067557], [-44.213318, -20.067534], [-44.21334, -20.067508], [-44.213507, -20.067275], [-44.213687, -20.067013], [-44.213701, -20.066968], [-44.213711, -20.066909], [-44.214047, -20.064539], [-44.213862, -20.064164], [-44.213562, -20.063856], [-44.213264, -20.063563], [-44.212588, -20.062956], [-44.207958, -20.061566], [-44.205447, -20.06086], [-44.205194, -20.060872], [-44.205181, -20.060874], [-44.205168, -20.060878], [-44.205162, -20.060881], [-44.20515, -20.060887], [-44.20514, -20.060895], [-44.205135, -20.0609], [-44.205131, -20.060904], [-44.205065, -20.060985], [-44.204971, -20.061149], [-44.2049, -20.061301], [-44.204893, -20.061321], [-44.204887, -20.061341], [-44.204882, -20.061362], [-44.204879, -20.061382], [-44.204878, -20.061403], [-44.204879, -20.061424], [-44.20488, -20.061445], [-44.204884, -20.061466], [-44.208852, -20.069851], [-44.208899, -20.069921], [-44.209164, -20.070116]]]}}, {"type": "Feature", "properties": {"codigo": "26", "pasta": "26_CHACARAS_RECANTO_DO_FUNIL", "nome": "Chacaras Recanto Do Funil", "lotes": 30, "edificacoes": 0, "quadras": 2, "area_cadastrada_m2": 45098.16}, "geometry": {"type": "Polygon", "coordinates": [[[-44.201723, -20.085909], [-44.203059, -20.085895], [-44.203003, -20.085419], [-44.202988, -20.085337], [-44.202783, -20.084846], [-44.202676, -20.084667], [-44.201956, -20.083516], [-44.201711, -20.083215], [-44.201692, -20.083201], [-44.200113, -20.082953], [-44.200063, -20.083219], [-44.200122, -20.083604], [-44.200195, -20.083906], [-44.200245, -20.084091], [-44.200392, -20.084442], [-44.201723, -20.085909]]]}}, {"type": "Feature", "properties": {"codigo": "27", "pasta": "27_VILA_DAS_AMOREIRAS", "nome": "Vila Das Amoreiras", "lotes": 293, "edificacoes": 63, "quadras": 10, "area_cadastrada_m2": 108781.17}, "geometry": {"type": "Polygon", "coordinates": [[[-44.210273, -20.096987], [-44.210837, -20.096885], [-44.209751, -20.089917], [-44.209725, -20.089849], [-44.209268, -20.088687], [-44.209148, -20.088382], [-44.208004, -20.088648], [-44.207896, -20.088709], [-44.207653, -20.089648], [-44.209482, -20.096547], [-44.210273, -20.096987]]]}}, {"type": "Feature", "properties": {"codigo": "28", "pasta": "28_FECHO_DO_FUNIL", "nome": "Fecho Do Funil", "lotes": 198, "edificacoes": 4, "quadras": 0, "area_cadastrada_m2": 1363696.64}, "geometry": {"type": "Polygon", "coordinates": [[[-44.198958, -20.090374], [-44.20507, -20.090322], [-44.207107, -20.090204], [-44.207779, -20.089965], [-44.209094, -20.088293], [-44.212762, -20.066055], [-44.212784, -20.065692], [-44.212705, -20.065247], [-44.21251, -20.064796], [-44.212213, -20.064475], [-44.211815, -20.064205], [-44.21137, -20.063964], [-44.210744, -20.06366], [-44.209588, -20.063143], [-44.209078, -20.062926], [-44.208472, -20.062737], [-44.207566, -20.062534], [-44.200797, -20.070311], [-44.195136, -20.084787], [-44.195308, -20.08757], [-44.198702, -20.090235], [-44.198958, -20.090374]]]}}, {"type": "Feature", "properties": {"codigo": "29", "pasta": "29_CAMPO_BELO", "nome": "Campo Belo", "lotes": 112, "edificacoes": 0, "quadras": 0, "area_cadastrada_m2": 1.14}, "geometry": {"type": "Polygon", "coordinates": [[[-44.169699, -20.067253], [-44.172179, -20.065527], [-44.175876, -20.059542], [-44.177951, -20.054469], [-44.177967, -20.054406], [-44.178152, -20.053013], [-44.177518, -20.052711], [-44.168738, -20.058016], [-44.168532, -20.058145], [-44.168428, -20.058216], [-44.167496, -20.058876], [-44.167791, -20.064569], [-44.169699, -20.067253]]]}}, {"type": "Feature", "properties": {"codigo": "30", "pasta": "30_BAMBUI", "nome": "Bambui", "lotes": 20, "edificacoes": 5, "quadras": 0, "area_cadastrada_m2": 17502.8}, "geometry": {"type": "Polygon", "coordinates": [[[-44.178152, -20.053013], [-44.179254, -20.052292], [-44.179264, -20.052275], [-44.179249, -20.05226], [-44.17674, -20.050664], [-44.176408, -20.050944], [-44.176976, -20.052543], [-44.178152, -20.053013]]]}}, {"type": "Feature", "properties": {"codigo": "31", "pasta": "31_BALNEARIO_ESTANCIAS_DO_BOM_JARDIM", "nome": "Balneario Estancias Do Bom Jardim", "lotes": 318, "edificacoes": 250, "quadras": 13, "area_cadastrada_m2": 485655.45}, "geometry": {"type": "Polygon", "coordinates": [[[-44.173298, -20.075023], [-44.173309, -20.075022], [-44.173329, -20.07502], [-44.173339, -20.075017], [-44.17624, -20.073499], [-44.179454, -20.065103], [-44.179467, -20.065039], [-44.179452, -20.064921], [-44.179307, -20.064422], [-44.172284, -20.060318], [-44.172266, -20.06031], [-44.172257, -20.060307], [-44.172248, -20.060305], [-44.172238, -20.060303], [-44.172219, -20.060301], [-44.172199, -20.060302], [-44.171768, -20.060462], [-44.171095, -20.060717], [-44.170659, -20.060884], [-44.171689, -20.07159], [-44.17179, -20.072041], [-44.171977, -20.072618], [-44.172029, -20.072742], [-44.173182, -20.074969], [-44.173189, -20.074977], [-44.173196, -20.074984], [-44.17322, -20.075002], [-44.173238, -20.075011], [-44.173258, -20.075017], [-44.173268, -20.07502], [-44.173288, -20.075022], [-44.173298, -20.075023]]]}}, {"type": "Feature", "properties": {"codigo": "32", "pasta": "32_VILLA_DA_SERRA", "nome": "Villa Da Serra", "lotes": 50, "edificacoes": 0, "quadras": 0, "area_cadastrada_m2": 0.0}, "geometry": {"type": "Polygon", "coordinates": [[[-44.185713, -20.0861], [-44.186402, -20.085955], [-44.188732, -20.057372], [-44.186873, -20.056358], [-44.183535, -20.056094], [-44.183413, -20.056109], [-44.183321, -20.056209], [-44.179591, -20.068692], [-44.178017, -20.079487], [-44.178016, -20.079652], [-44.178025, -20.079835], [-44.178034, -20.07987], [-44.179687, -20.082798], [-44.183552, -20.085418], [-44.184815, -20.085916], [-44.185713, -20.0861]]]}}, {"type": "Feature", "properties": {"codigo": "33", "pasta": "33_GARCIAS", "nome": "Garcias", "lotes": 24, "edificacoes": 0, "quadras": 0, "area_cadastrada_m2": 0.0}, "geometry": {"type": "Polygon", "coordinates": [[[-44.182323, -20.050138], [-44.182989, -20.050113], [-44.183556, -20.04996], [-44.183937, -20.049814], [-44.184245, -20.049647], [-44.18464, -20.049385], [-44.184994, -20.049079], [-44.18478, -20.048583], [-44.184664, -20.048422], [-44.178889, -20.046878], [-44.177884, -20.046756], [-44.177947, -20.047245], [-44.178068, -20.04756], [-44.178181, -20.04778], [-44.178351, -20.048016], [-44.178519, -20.048244], [-44.178829, -20.048514], [-44.179025, -20.048672], [-44.179244, -20.048837], [-44.180003, -20.049398], [-44.180237, -20.049543], [-44.180559, -20.04972], [-44.180914, -20.049883], [-44.181667, -20.05008], [-44.181695, -20.050084], [-44.181959, -20.050119], [-44.182083, -20.050129], [-44.182204, -20.050134], [-44.182323, -20.050138]]]}}]}